OBJECT_NAME,OBJECT_ID,EPOCH,MEAN_MOTION,ECCENTRICITY,INCLINATION,RA_OF_ASC_NODE,ARG_OF_PERICENTER,MEAN_ANOMALY,EPHEMERIS_TYPE,CLASSIFICATION_TYPE,NORAD_CAT_ID,ELEMENT_SET_NO,REV_AT_EPOCH,BSTAR,MEAN_MOTION_DOT,MEAN_MOTION_DDOT
ICEYE-X43,2024-149BZ,2026-05-14T03:14:08.186208,14.99750462,.0004607,97.6771,211.5700,195.2093,164.8992,0,U,60539,999,9501,.13984E-3,.1669E-4,0
HAWK-10A,2024-149CA,2026-05-14T03:14:01.281984,14.96399989,.0003666,97.6893,210.6329,164.5707,195.5627,0,U,60540,999,9489,.6545E-4,.684E-5,0
UMBRA-09,2024-149CB,2026-05-13T23:25:31.279872,15.16966384,.0001293,97.6974,220.6292,130.5500,229.5846,0,U,60541,999,9553,.57286E-3,.11248E-3,0
QPS-SAR-8 (AMATERU-IV),2024-149CC,2026-05-14T03:05:02.748192,15.03771216,.0002596,97.6664,213.5747,194.3472,165.7681,0,U,60542,999,9515,.19152E-3,.2569E-4,0
ARCTIC WEATHER SATELLITE,2024-149CD,2026-05-14T04:02:30.243840,14.89796710,.0001738,97.6807,205.6038,177.2604,182.8624,0,U,60543,999,9423,.54338E-4,.468E-5,0
CAPELLA-15 (ACADIA-5),2024-149CE,2026-05-14T03:05:56.145984,14.92416299,.0004356,97.6775,207.8790,172.5246,187.6039,0,U,60544,999,9477,.58042E-4,.54E-5,0
HAWK-10B,2024-149CF,2026-05-14T03:13:48.648576,14.96400732,.000501,97.6814,210.0222,192.2141,167.8959,0,U,60545,999,9489,.71523E-4,.753E-5,0
ICEYE-X39,2024-149CG,2026-05-14T04:25:23.295360,14.99711032,.0002339,97.6821,211.6700,176.7350,183.3888,0,U,60546,999,9502,.13596E-3,.1619E-4,0
UMBRA-10,2024-149CH,2026-05-13T17:04:55.874784,15.16958064,.00022695,97.6974,220.3847,109.0333,251.1145,0,U,60547,999,9550,.50626704E-3,.9928E-4,0
ICEYE-X33,2024-149CJ,2026-05-14T04:02:29.048064,15.00901823,.0000702,97.7176,213.5174,333.0969,27.0218,0,U,60548,999,9510,.25089E-3,.3134E-4,0
ICEYE-X40,2024-149CK,2026-05-14T03:59:45.504096,14.97832107,.0004937,97.6817,211.2106,167.4357,192.6989,0,U,60549,999,9498,.15342E-3,.1746E-4,0
SATELIOT_1,2024-149CL,2026-05-14T02:14:28.970304,14.97926307,.000686,97.6755,210.5609,172.5140,187.6186,0,U,60550,999,9496,.19019E-3,.2184E-4,0
BRO-14,2024-149CM,2026-05-14T03:40:43.867200,14.96109875,.0006226,97.6874,210.5424,198.1231,161.9770,0,U,60551,999,9490,.10017E-3,.107E-4,0
SATELIOT_3,2024-149CN,2026-05-13T11:13:24.248064,14.97903855,.00048795,97.6819,210.7059,188.0175,172.0971,0,U,60552,999,9488,.89983694E-4,.1002E-4,0
BRO-15,2024-149CP,2026-05-14T03:14:13.058304,14.96065813,.0007766,97.6803,210.1584,191.7942,168.3098,0,U,60553,999,9491,.31394E-4,.296E-5,0
UM5-RIBAT,2024-149CQ,2026-05-14T03:20:59.597952,15.00874618,.0003218,97.6659,212.3990,115.4564,244.6993,0,U,60554,999,9508,.13463E-3,.1653E-4,0
UM5-EOSAT,2024-149CR,2026-05-13T17:10:28.375680,15.01277889,.00067662,97.6657,212.8829,217.0324,143.0434,0,U,60555,999,9504,.14118106E-3,.1756E-4,0
LASARSAT,2024-247Q,2026-05-13T07:48:14.278464,15.44166921,.00047635,44.9736,97.7722,121.9276,238.2076,0,U,62391,999,7792,.41582108E-3,.19182E-3,0
CROCUBE,2024-247T,2026-05-13T22:38:51.804096,15.45786748,.0004487,44.9715,92.1524,130.7673,229.3607,0,U,62394,999,7804,.55089E-3,.27024E-3,0
TEVEL2-4,2025-052D,2026-05-13T05:12:31.830048,15.33358313,.0001655,97.3947,29.5787,172.7980,187.3286,0,U,63213,999,6475,.33272E-3,.10651E-3,0
TEVEL2-5,2025-052E,2026-05-13T22:50:29.846976,15.33219049,.0001703,97.3950,30.2711,170.8608,189.2666,0,U,63214,999,6486,.38196E-3,.12187E-3,0
TEVEL2-6,2025-052F,2026-05-13T05:53:14.214624,15.33166097,.0001699,97.3949,29.5493,177.1598,182.9654,0,U,63215,999,6475,.34012E-3,.10824E-3,0
TEVEL2-1,2025-052H,2026-05-13T06:18:21.404736,15.32676472,.0001142,97.3921,29.2310,196.6047,163.5157,0,U,63217,999,6474,.33842E-3,.10604E-3,0
TEVEL2-3,2025-052J,2026-05-13T04:38:18.722400,15.32722875,.00011,97.3924,29.1793,196.4761,163.6445,0,U,63218,999,6473,.33444E-3,.10494E-3,0
TEVEL2-2,2025-052K,2026-05-13T23:33:11.445408,15.32698350,.0001215,97.3924,29.9505,195.0344,165.0862,0,U,63219,999,6485,.3891E-3,.12215E-3,0
TEVEL2-9,2025-052AD,2026-05-13T06:17:25.669824,15.30805171,.0004055,97.3985,28.6800,262.6954,97.3827,0,U,63237,999,6468,.32842E-3,.9705E-4,0
TEVEL2-7,2025-052AE,2026-05-14T05:05:11.713632,15.30556074,.0004149,97.3988,29.5568,257.9813,102.0963,0,U,63238,999,6482,.34228E-3,.1004E-3,0
TEVEL2-8,2025-052AF,2026-05-13T10:26:47.226912,15.30523404,.00041169,97.3987,28.7607,263.2616,96.8157,0,U,63239,999,6470,.32921369E-3,.9644E-4,0
HADES-ICM,2025-052BN,2026-05-13T05:22:32.656512,15.95048108,.00095166,97.3775,37.3589,170.5862,189.5593,0,U,63492,999,6527,.185042E-2,.715029E-2,.21931804E-3
FORESAIL-1 PRIME,2025-276DS,2026-05-14T03:02:02.156640,15.18375007,.00019,97.4210,208.0275,183.8577,176.2643,0,U,66778,999,2523,.15136E-3,.3043E-4,0
