ICEYE-X43               
1 60539U 24149BZ  26134.13481697  .00001669  00000+0  13984-3 0  9997
2 60539  97.6771 211.5700 0004607 195.2093 164.8992 14.99750462 95015
HAWK-10A                
1 60540U 24149CA  26134.13473706  .00000684  00000+0  65450-4 0  9993
2 60540  97.6893 210.6329 0003666 164.5707 195.5627 14.96399989 94895
UMBRA-09                
1 60541U 24149CB  26133.97605648  .00011248  00000+0  57286-3 0  9992
2 60541  97.6974 220.6292 0001293 130.5500 229.5846 15.16966384 95539
QPS-SAR-8 (AMATERU-IV)  
1 60542U 24149CC  26134.12850403  .00002569  00000+0  19152-3 0  9998
2 60542  97.6664 213.5747 0002596 194.3472 165.7681 15.03771216 95155
ARCTIC WEATHER SATELLITE
1 60543U 24149CD  26134.16840560  .00000468  00000+0  54338-4 0  9998
2 60543  97.6807 205.6038 0001738 177.2604 182.8624 14.89796710 94238
CAPELLA-15 (ACADIA-5)   
1 60544U 24149CE  26134.12912206  .00000540  00000+0  58042-4 0  9999
2 60544  97.6775 207.8790 0004356 172.5246 187.6039 14.92416299 94778
HAWK-10B                
1 60545U 24149CF  26134.13459084  .00000753  00000+0  71523-4 0  9996
2 60545  97.6814 210.0222 0005010 192.2141 167.8959 14.96400732 94893
ICEYE-X39               
1 60546U 24149CG  26134.18429740  .00001619  00000+0  13596-3 0  9995
2 60546  97.6821 211.6700 0002339 176.7350 183.3888 14.99711032 95021
UMBRA-10                
1 60547U 24149CH  26133.71175781  .00009928  00000+0  50627-3 0  9994
2 60547  97.6974 220.3847 0002269 109.0333 251.1145 15.16958064 95503
ICEYE-X33               
1 60548U 24149CJ  26134.16839176  .00003134  00000+0  25089-3 0  9997
2 60548  97.7176 213.5174 0000702 333.0969  27.0218 15.00901823 95101
ICEYE-X40               
1 60549U 24149CK  26134.16649889  .00001746  00000+0  15342-3 0  9996
2 60549  97.6817 211.2106 0004937 167.4357 192.6989 14.97832107 94989
SATELIOT_1              
1 60550U 24149CL  26134.09339086  .00002184  00000+0  19019-3 0  9997
2 60550  97.6755 210.5609 0006860 172.5140 187.6186 14.97926307 94963
BRO-14                  
1 60551U 24149CM  26134.15328550  .00001070  00000+0  10017-3 0  9991
2 60551  97.6874 210.5424 0006226 198.1231 161.9770 14.96109875 94902
SATELIOT_3              
1 60552U 24149CN  26133.46764176  .00001002  00000+0  89984-4 0  9998
2 60552  97.6819 210.7059 0004879 188.0175 172.0971 14.97903855 94889
BRO-15                  
1 60553U 24149CP  26134.13487336  .00000296  00000+0  31394-4 0  9990
2 60553  97.6803 210.1584 0007766 191.7942 168.3098 14.96065813 94915
UM5-RIBAT               
1 60554U 24149CQ  26134.13957868  .00001653  00000+0  13463-3 0  9997
2 60554  97.6659 212.3990 0003218 115.4564 244.6993 15.00874618 95089
UM5-EOSAT               
1 60555U 24149CR  26133.71560620  .00001756  00000+0  14118-3 0  9999
2 60555  97.6657 212.8829 0006766 217.0324 143.0434 15.01277889 95044
LASARSAT                
1 62391U 24247Q   26133.32516526  .00019182  00000+0  41582-3 0  9998
2 62391  44.9736  97.7722 0004763 121.9276 238.2076 15.44166921 77920
CROCUBE                 
1 62394U 24247T   26133.94365514  .00027024  00000+0  55089-3 0  9999
2 62394  44.9715  92.1524 0004487 130.7673 229.3607 15.45786748 78042
TEVEL2-4                
1 63213U 25052D   26133.21703507  .00010651  00000+0  33272-3 0  9991
2 63213  97.3947  29.5787 0001655 172.7980 187.3286 15.33358313 64757
TEVEL2-5                
1 63214U 25052E   26133.95173434  .00012187  00000+0  38196-3 0  9999
2 63214  97.3950  30.2711 0001703 170.8608 189.2666 15.33219049 64865
TEVEL2-6                
1 63215U 25052F   26133.24530341  .00010824  00000+0  34012-3 0  9995
2 63215  97.3949  29.5493 0001699 177.1598 182.9654 15.33166097 64753
TEVEL2-1                
1 63217U 25052H   26133.26274774  .00010604  00000+0  33842-3 0  9990
2 63217  97.3921  29.2310 0001142 196.6047 163.5157 15.32676472 64742
TEVEL2-3                
1 63218U 25052J   26133.19327225  .00010494  00000+0  33444-3 0  9998
2 63218  97.3924  29.1793 0001100 196.4761 163.6445 15.32722875 64734
TEVEL2-2                
1 63219U 25052K   26133.98138247  .00012215  00000+0  38910-3 0  9996
2 63219  97.3924  29.9505 0001215 195.0344 165.0862 15.32698350 64855
TEVEL2-9                
1 63237U 25052AD  26133.26210266  .00009705  00000+0  32842-3 0  9997
2 63237  97.3985  28.6800 0004055 262.6954  97.3827 15.30805171 64687
TEVEL2-7                
1 63238U 25052AE  26134.21194113  .00010040  00000+0  34228-3 0  9990
2 63238  97.3988  29.5568 0004149 257.9813 102.0963 15.30556074 64823
TEVEL2-8                
1 63239U 25052AF  26133.43526883  .00009644  00000+0  32921-3 0  9993
2 63239  97.3987  28.7607 0004116 263.2616  96.8157 15.30523404 64706
HADES-ICM               
1 63492U 25052BN  26133.22398908  .00715029  21932-3  18504-2 0  9998
2 63492  97.3775  37.3589 0009516 170.5862 189.5593 15.95048108 65270
FORESAIL-1 PRIME        
1 66778U 25276DS  26134.12641385  .00003043  00000+0  15136-3 0  9990
2 66778  97.4210 208.0275 0001900 183.8577 176.2643 15.18375007 25230
